STARLINK-32875          
1 62951U 25029D   26181.96187054  .00042550  00000+0  12639-2 0  9997
2 62951  53.1579  62.5253 0000644  97.6765 262.4311 15.34385543 78726
STARLINK-32874          
1 62954U 25029G   26181.96608490  .00042243  00000+0  12540-2 0  9992
2 62954  53.1573  62.5480 0001011  79.3792 280.7324 15.34409600 78729
STARLINK-32880          
1 62955U 25029H   26181.97879922  .00033585  00000+0  10886-2 0  9994
2 62955  53.1587  65.4625 0000501 331.2716  28.8258 15.31716012 78684
STARLINK-32879          
1 62957U 25029K   26181.94620531  .00061939  00000+0  19863-2 0  9991
2 62957  53.1595  65.9734 0001035  88.5031 271.6089 15.31779083 78661
STARLINK-32885          
1 62958U 25029L   26181.65513217  .00018833  00000+0  56684-3 0  9990
2 62958  53.1595  64.1639 0001725  62.7765 297.3413 15.34416630 78666
STARLINK-32896          
1 62959U 25029M   26180.97107772  .00022265  00000+0  76134-3 0  9996
2 62959  53.1604  71.2591 0000899  81.5578 278.5524 15.30210709 78508
STARLINK-32877          
1 62960U 25029N   26181.68321186  .00027793  00000+0  94704-3 0  9998
2 62960  53.1607  67.8810 0001385  85.1617 274.9542 15.30198297 78599
STARLINK-32858          
1 62962U 25029Q   26180.97412894  .00025900  00000+0  88317-3 0  9999
2 62962  53.1594  70.5683 0001070 107.1136 252.9982 15.30212977 78492
STARLINK-32882          
1 62963U 25029R   26181.96818547  .00030880  00000+0  92088-3 0  9998
2 62963  53.1574  62.5600 0000802  57.7591 302.3490 15.34415203 78718
STARLINK-32887          
1 62964U 25029S   26181.94092436  .00039806  00000+0  11822-2 0  9991
2 62964  53.1607  63.1046 0000952  78.0199 282.0910 15.34422525 78708
STARLINK-32836          
1 62965U 25029T   26181.95565236  .00029549  00000+0  88198-3 0  9990
2 62965  53.1597  63.1939 0000986  86.1679 273.9436 15.34409509 78707
STARLINK-32888          
1 62966U 25029U   26181.94130343  .00038550  00000+0  13058-2 0  9991
2 62966  53.1605  66.6584 0001310  84.9909 275.1241 15.30227811 78658
STARLINK-32894          
1 62969U 25029X   26181.96756850  .00036169  00000+0  12269-2 0  9990
2 62969  53.1566  66.0965 0000886  90.0758 270.0344 15.30211885 78664
STARLINK-32826          
1 62970U 25029Y   26181.96123774  .00030124  00000+0  10245-2 0  9992
2 62970  53.1587  66.0575 0001092  89.2683 270.8443 15.30217629 78663
STARLINK-11417 [DTC]    
1 62983U 25031C   26181.58638451  .00175458  00000+0  13421-2 0  9999
2 62983  42.9993  41.3618 0001054 276.8251  83.2497 15.70841249 80495
STARLINK-11544 [DTC]    
1 62984U 25031D   26180.90807634  .00229393  00000+0  17351-2 0  9990
2 62984  42.9985  44.8489 0001834 245.6770 114.3907 15.70938794 80367
STARLINK-11582 [DTC]    
1 62985U 25031E   26180.98758802  .00163617  00000+0  12521-2 0  9991
2 62985  43.0014  44.5941 0001945 267.9640  92.1005 15.70868754 80404
STARLINK-11571 [DTC]    
1 62986U 25031F   26181.59156077  .00188035  00000+0  14348-2 0  9996
2 62986  42.9998  40.5041 0001709 249.8523 110.2161 15.70859519 80503
STARLINK-11539 [DTC]    
1 62987U 25031G   26181.61811179  .00232863  00000+0  17596-2 0  9998
2 62987  43.0005  40.7175 0003986 280.9040  79.1380 15.70946815 80506
