OBJECT_NAME,OBJECT_ID,EPOCH,MEAN_MOTION,ECCENTRICITY,INCLINATION,RA_OF_ASC_NODE,ARG_OF_PERICENTER,MEAN_ANOMALY,EPHEMERIS_TYPE,CLASSIFICATION_TYPE,NORAD_CAT_ID,ELEMENT_SET_NO,REV_AT_EPOCH,BSTAR,MEAN_MOTION_DOT,MEAN_MOTION_DDOT
STARLINK-32875,2025-029D,2026-06-30T23:05:05.615520,15.34385543,.00006444,53.1579,62.5253,97.6765,262.4311,0,U,62951,999,7872,.12639173E-2,.4255E-3,0
STARLINK-32874,2025-029G,2026-06-30T23:11:09.735360,15.34409600,.00010107,53.1573,62.5480,79.3792,280.7324,0,U,62954,999,7872,.12539709E-2,.42243E-3,0
STARLINK-32880,2025-029H,2026-06-30T23:29:28.253472,15.31716012,.00005007,53.1587,65.4625,331.2716,28.8258,0,U,62955,999,7868,.10886006E-2,.33585E-3,0
STARLINK-32879,2025-029K,2026-06-30T22:42:32.139648,15.31779083,.00010347,53.1595,65.9734,88.5031,271.6089,0,U,62957,999,7866,.19863264E-2,.61939E-3,0
STARLINK-32885,2025-029L,2026-06-30T15:43:23.419488,15.34416630,.00017258,53.1595,64.1639,62.7765,297.3413,0,U,62958,999,7866,.56683514E-3,.18833E-3,0
STARLINK-32896,2025-029M,2026-06-29T23:18:21.115008,15.30210709,.00008997,53.1604,71.2591,81.5578,278.5524,0,U,62959,999,7850,.76134296E-3,.22265E-3,0
STARLINK-32877,2025-029N,2026-06-30T16:23:49.504704,15.30198297,.00013855,53.1607,67.8810,85.1617,274.9542,0,U,62960,999,7859,.9470444E-3,.27793E-3,0
STARLINK-32858,2025-029Q,2026-06-29T23:22:44.740416,15.30212977,.00010704,53.1594,70.5683,107.1136,252.9982,0,U,62962,999,7849,.88317191E-3,.259E-3,0
STARLINK-32882,2025-029R,2026-06-30T23:14:11.225472,15.34415203,.00008018,53.1574,62.5600,57.7591,302.3490,0,U,62963,999,7871,.92087645E-3,.3088E-3,0
STARLINK-32887,2025-029S,2026-06-30T22:34:55.865568,15.34422525,.00009524,53.1607,63.1046,78.0199,282.0910,0,U,62964,999,7870,.11821799E-2,.39806E-3,0
STARLINK-32836,2025-029T,2026-06-30T22:56:08.364768,15.34409509,.00009857,53.1597,63.1939,86.1679,273.9436,0,U,62965,999,7870,.88198443E-3,.29549E-3,0
STARLINK-32888,2025-029U,2026-06-30T22:35:28.616352,15.30227811,.00013095,53.1605,66.6584,84.9909,275.1241,0,U,62966,999,7865,.13058276E-2,.3855E-3,0
STARLINK-32894,2025-029X,2026-06-30T23:13:17.918400,15.30211885,.00008855,53.1566,66.0965,90.0758,270.0344,0,U,62969,999,7866,.12269253E-2,.36169E-3,0
STARLINK-32826,2025-029Y,2026-06-30T23:04:10.941600,15.30217629,.00010918,53.1587,66.0575,89.2683,270.8443,0,U,62970,999,7866,.10245315E-2,.30124E-3,0
STARLINK-11417 [DTC],2025-031C,2026-06-30T14:04:23.621664,15.70841249,.00010546,42.9993,41.3618,276.8251,83.2497,0,U,62983,999,8049,.13421418E-2,.175458E-2,0
STARLINK-11544 [DTC],2025-031D,2026-06-29T21:47:37.795776,15.70938794,.00018346,42.9985,44.8489,245.6770,114.3907,0,U,62984,999,8036,.17351024E-2,.229393E-2,0
STARLINK-11582 [DTC],2025-031E,2026-06-29T23:42:07.604928,15.70868754,.00019452,43.0014,44.5941,267.9640,92.1005,0,U,62985,999,8040,.12521268E-2,.163617E-2,0
STARLINK-11571 [DTC],2025-031F,2026-06-30T14:11:50.850528,15.70859519,.0001709,42.9998,40.5041,249.8523,110.2161,0,U,62986,999,8050,.14347989E-2,.188035E-2,0
STARLINK-11539 [DTC],2025-031G,2026-06-30T14:50:04.858656,15.70946815,.00039862,43.0005,40.7175,280.9040,79.1380,0,U,62987,999,8050,.17596171E-2,.232863E-2,0
